LANDSAT 4               
1 13367U 82072A   09170.57043058  .00000708  00000-0  58746-4 0  1450
2 13367  98.1852  85.6633 0017651 328.1300  31.8854 15.02219786444870
TDRS 1                  
1 13969U 83026B   09169.07617303 -.00000291  00000-0  10000-3 0  8793
2 13969  13.3433   9.2828 0023146 230.5255   5.3024  1.00273490 69009
LANDSAT 5               
1 14780U 84021A   09170.80265728 -.00000029  00000-0  37436-5 0  7796
2 14780  98.2442 238.3211 0003824 102.3571 257.8056 14.57092012345766
ERBS                    
1 15354U 84108B   09170.86480523  .00000039  00000-0  17471-4 0  1316
2 15354  56.9844 144.2480 0022624  79.8804 280.4816 15.15779198352463
TDRS 3                  
1 19548U 88091B   09169.96263447 -.00000185  00000-0  10000-3 0  2799
2 19548  11.8436  39.9016 0022762 323.4425 335.4388  1.00272920 63154
TDRS 4                  
1 19883U 89021B   09169.89696067 -.00000272  00000-0  10000-3 0  6011
2 19883  10.5091  51.7958 0001942 348.4332 143.9665  1.00279006246736
HST                     
1 20580U 90037B   09168.24607405  .00000282  00000-0  88263-5 0  4096
2 20580  28.4682 101.9284 0003301 281.8128  78.2090 15.00809493849869
TDRS 5                  
1 21639U 91054B   09169.65903817  .00000117  00000-0  10000-3 0  4644
2 21639   9.8603  55.6010 0009927 341.5704 299.7647  1.00282727 65472
UARS                    
1 21701U 91063B   09170.56747403  .00003619  00000-0  52853-4 0  6941
2 21701  56.9726 354.0625 0077382 172.9261 187.2863 15.55326340979596
TOPEX/POSEIDON          
1 22076U 92052A   09169.88632337 -.00000038  00000-0  10000-3 0  3844
2 22076  66.0318  67.1825 0007785 263.9858  96.0270 12.80947523788468
TDRS 6                  
1 22314U 93003B   09168.31375508  .00000104  00000-0  10000-3 0  4896
2 22314   9.2089  58.6824 0007840 350.7947 157.7659  1.00271763 60181
TDRS 7                  
1 23613U 95035B   09168.72909755 -.00000161  00000-0  10000-3 0  5411
2 23613  11.0366  48.2002 0005827 230.5458  61.9856  0.99443935 50993
RXTE (XTE)              
1 23757U 95074A   09169.96175224  .00000996  00000-0  19445-4 0  8912
2 23757  22.9830  22.6780 0008212  10.5201 349.5437 15.27263766746048
TRMM                    
1 25063U 97074A   09169.84475386  .00002620  00000-0  36883-4 0   907
2 25063  34.9672 327.5112 0001022 300.9922  59.0677 15.56212546660351
KIKU-7 (ETS-VII)        
1 25064U 97074B   09170.03794263  .00000577  00000-0  23860-4 0  8299
2 25064  34.9584  20.2859 0002128 322.1207  37.9357 15.25177306641291
ISS (ZARYA)             
1 25544U 98067A   09170.79758185  .00013009  00000-0  94111-4 0   698
2 25544  51.6412 293.5008 0008737 128.5784  10.7348 15.73836960606360
LANDSAT 7               
1 25682U 99020A   09170.76970843 -.00000036  00000-0  19724-5 0  8698
2 25682  98.2087 238.7536 0000793 113.1155 247.0123 14.57114079541456
FUSE 1                  
1 25791U 99035A   09169.75345818  .00000124  00000-0 -16943-4 0  4604
2 25791  24.9872 318.3119 0010446 289.1507  70.7882 14.41794808526620
TERRA                   
1 25994U 99068A   09170.78885020 -.00000017  00000-0  62629-5 0  7892
2 25994  98.2012 245.7456 0001486  70.3548 289.7804 14.57125543505535
TDRS 8                  
1 26388U 00034A   09169.31290367  .00000000  00000-0  10000-3 0  9781
2 26388   1.4011 108.9257 0004738 331.6157  27.5955  1.00263649 32937
EO-1                    
1 26619U 00075A   09170.76662504 -.00000161  00000-0 -22814-4 0  1598
2 26619  98.1457 238.1151 0008881 303.2173  56.8119 14.62023410456643
TIMED                   
1 26998U 01055B   09170.02591122  .00000201  00000-0  28372-4 0  3201
2 26998  74.0739 346.3813 0000835  92.0011 268.1232 14.84078572407790
TDRS 9                  
1 27389U 02011A   09168.44318051 -.00000258  00000-0  10000-3 0  3997
2 27389   2.3475 232.5922 0009113 171.3389 319.2403  1.00278722 28183
AQUA                    
1 27424U 02022A   09170.46756805  .00000059  00000-0  22989-4 0  3377
2 27424  98.1788 112.7350 0001692 100.3214 259.8171 14.57128365379093
TDRS 10                 
1 27566U 02055A   09169.90112561 -.00000245  00000-0  00000+0 0  1160
2 27566   1.0927 281.5383 0003666 171.9786  97.3646  1.00269752 24022
SORCE                   
1 27651U 03004A   09170.42738680  .00000019  00000-0  18249-4 0  9306
2 27651  39.9980 301.2366 0026974 358.1079   1.9618 14.82185792346626
GALEX                   
1 27783U 03017A   09170.46781871  .00000134  00000-0  58598-5 0  6936
2 27783  28.9991 245.1793 0003956 120.6702 239.4305 14.59751143328110
GP-B                    
1 28230U 04014A   09169.39068826  .00000016  00000-0  35779-7 0  5341
2 28230  89.9406 157.9494 0003391  94.6127 265.5510 14.75975487277958
AURA                    
1 28376U 04026A   09170.47307935  .00000037  00000-0  18102-4 0  5276
2 28376  98.1751 114.8812 0001607  96.3550 263.7822 14.57124844262141
SWIFT                   
1 28485U 04047A   09169.41824691  .00000549  00000-0  13713-4 0  3230
2 28485  20.5597 192.2168 0014519  68.0329 292.1693 14.92548183249859
THEMIS A                
1 30580U 07004A   09169.91666667  .00000034  00000-0  10000-3 0  4478
2 30580   9.2499 247.8162 7884696 113.4236 348.0760  0.87645935  8215
THEMIS B                
1 30581U 07004B   09170.41666667 -.00000721  00000-0  00000-0 0  2597
2 30581  11.1744   5.3933 9140088 321.8390 354.9143  0.25339023  6064
THEMIS C                
1 30582U 07004C   09170.79166667 -.00000098  00000-0  00000-0 0  4166
2 30582   8.9186 343.8089 8590208 353.7311 354.6140  0.49416382  4972
THEMIS D                
1 30797U 07004D   09169.54166667  .00000022  00000-0  00000+0 0  5868
2 30797   4.1061 246.7465 7492522 114.4821 353.8127  1.00264393  7763
THEMIS E                
1 30798U 07004E   09169.58333333  .00000010  00000-0  00000+0 0  6069
2 30798   4.6404 246.1596 7490109 115.0580 354.3616  1.00268975  7902
C/NOFS                  
1 32765U 08017A   09170.94234425  .00002596  00000-0  86031-4 0  3199
2 32765  13.0075  75.9371 0314121 118.2753 244.9580 14.81395153 63722
AIM                     
1 31304U 07015A   09170.23949980  .00000851  00000-0  89220-4 0  7329
2 31304  97.8013 270.8690 0010767 210.4158 149.6443 14.92139283117108
FGRST (GLAST)           
1 33053U 08029A   09170.71161163  .00000279  00000-0  00000+0 0  2682
2 33053  25.5852 329.7583 0014497 165.9150 194.1808 15.04937162 56260
